start=new Date('2021-11-21T00:00:00.000Z').valueOf();
sats=[{"OBJECT_ID":"2020-038B","REV_AT_EPOCH":"8052","MEAN_ANOMALY":"285.5138","REF_FRAME":"TEME","PERIAPSIS":"546.371","COUNTRY_CODE":"US","LAUNCH_DATE":"2020-06-13","TLE_LINE2":"2 45731  53.0547  84.6649 0001228  74.5987 285.5138 15.06397517 80527","EPOCH":"2021-11-20T16:21:53.555040","OBJECT_TYPE":"PAYLOAD","RCS_SIZE":"LARGE","RA_OF_ASC_NODE":"84.6649","TIME_SYSTEM":"UTC","ECCENTRICITY":"0.00012280","NORAD_CAT_ID":"45731","MEAN_MOTION_DDOT":"0.0000000000000","INCLINATION":"53.0547","FILE":"3220112","APOAPSIS":"548.072","ELEMENT_SET_NO":"999","CENTER_NAME":"EARTH","MEAN_ELEMENT_THEORY":"SGP4","SITE":"AFETR","TLE_LINE1":"1 45731U 20038B   21324.68186985  .00001815  00000-0  14069-3 0  9994","BSTAR":"0.00014069000000","PERIOD":"95.592","CLASSIFICATION_TYPE":"U","DECAY_DATE":null,"GP_ID":"190145111","MEAN_MOTION":"15.06397517","MEAN_MOTION_DOT":"0.00001815","SEMIMAJOR_AXIS":"6925.356","OBJECT_NAME":"STARLINK-1465","ARG_OF_PERICENTER":"74.5987","EPHEMERIS_TYPE":"0"},{"MEAN_ELEMENT_THEORY":"SGP4","BSTAR":"-0.00003980100000","SITE":"AFETR","TLE_LINE1":"1 45732U 20038C   21324.67081077 -.00000874  00000-0 -39801-4 0  9998","MEAN_MOTION_DDOT":"0.0000000000000","APOAPSIS":"548.141","FILE":"3220112","CENTER_NAME":"EARTH","ELEMENT_SET_NO":"999","INCLINATION":"53.0548","MEAN_MOTION_DOT":"-0.00000874","SEMIMAJOR_AXIS":"6925.367","MEAN_MOTION":"15.06393835","EPHEMERIS_TYPE":"0","OBJECT_NAME":"STARLINK-1466","ARG_OF_PERICENTER":"79.0838","CLASSIFICATION_TYPE":"U","PERIOD":"95.593","GP_ID":"190145477","DECAY_DATE":null,"LAUNCH_DATE":"2020-06-13","PERIAPSIS":"546.324","COUNTRY_CODE":"US","EPOCH":"2021-11-20T16:05:58.050528","TLE_LINE2":"2 45732  53.0548  84.7044 0001312  79.0838 281.0299 15.06393835 80672","REV_AT_EPOCH":"8067","OBJECT_ID":"2020-038C","MEAN_ANOMALY":"281.0299","REF_FRAME":"TEME","TIME_SYSTEM":"UTC","NORAD_CAT_ID":"45732","ECCENTRICITY":"0.00013120","OBJECT_TYPE":"PAYLOAD","RA_OF_ASC_NODE":"84.7044","RCS_SIZE":"LARGE"},{"OBJECT_TYPE":"PAYLOAD","RA_OF_ASC_NODE":"85.5753","RCS_SIZE":"LARGE","TIME_SYSTEM":"UTC","NORAD_CAT_ID":"45733","ECCENTRICITY":"0.00014090","REV_AT_EPOCH":"7952","OBJECT_ID":"2020-038D","MEAN_ANOMALY":"289.4718","REF_FRAME":"TEME","LAUNCH_DATE":"2020-06-13","PERIAPSIS":"546.230","COUNTRY_CODE":"US","EPOCH":"2021-11-20T11:29:57.761664","TLE_LINE2":"2 45733  53.0555  85.5753 0001409  70.6423 289.4718 15.06402468 79524","CLASSIFICATION_TYPE":"U","PERIOD":"95.592","GP_ID":"190139905","DECAY_DATE":null,"MEAN_MOTION_DOT":"0.00000510","SEMIMAJOR_AXIS":"6925.341","MEAN_MOTION":"15.06402468","EPHEMERIS_TYPE":"0","OBJECT_NAME":"STARLINK-1467","ARG_OF_PERICENTER":"70.6423","MEAN_MOTION_DDOT":"0.0000000000000","FILE":"3220049","APOAPSIS":"548.182","ELEMENT_SET_NO":"999","CENTER_NAME":"EARTH","INCLINATION":"53.0555","MEAN_ELEMENT_THEORY":"SGP4","BSTAR":"0.00005312300000","SITE":"AFETR","TLE_LINE1":"1 45733U 20038D   21324.47914076  .00000510  00000-0  53123-4 0  9999"},{"RCS_SIZE":"LARGE","RA_OF_ASC_NODE":"84.7505","OBJECT_TYPE":"PAYLOAD","ECCENTRICITY":"0.00012790","NORAD_CAT_ID":"45734","TIME_SYSTEM":"UTC","MEAN_ANOMALY":"276.9749","REF_FRAME":"TEME","OBJECT_ID":"2020-038E","REV_AT_EPOCH":"8066","TLE_LINE2":"2 45734  53.0544  84.7505 0001279  83.1386 276.9749 15.06396526 80660","EPOCH":"2021-11-20T15:50:02.660064","PERIAPSIS":"546.338","COUNTRY_CODE":"US","LAUNCH_DATE":"2020-06-13","DECAY_DATE":null,"GP_ID":"190145107","PERIOD":"95.592","CLASSIFICATION_TYPE":"U","OBJECT_NAME":"STARLINK-1468","ARG_OF_PERICENTER":"83.1386","EPHEMERIS_TYPE":"0","MEAN_MOTION":"15.06396526","MEAN_MOTION_DOT":"0.00001099","SEMIMAJOR_AXIS":"6925.359","INCLINATION":"53.0544","FILE":"3220112","APOAPSIS":"548.110","ELEMENT_SET_NO":"999","CENTER_NAME":"EARTH","MEAN_MOTION_DDOT":"0.0000000000000","SITE":"AFETR","TLE_LINE1":"1 45734U 20038E   21324.65975301  .00001099  00000-0  92651-4 0  9990","BSTAR":"0.00009265100000","MEAN_ELEMENT_THEORY":"SGP4"},{"REF_FRAME":"TEME","MEAN_ANOMALY":"294.7919","REV_AT_EPOCH":"8068","OBJECT_ID":"2020-038F","EPOCH":"2021-11-20T18:18:40.107744","TLE_LINE2":"2 45735  53.0550  84.2960 0001519  65.3228 294.7919 15.06386405 80686","LAUNCH_DATE":"2020-06-13","COUNTRY_CODE":"US","PERIAPSIS":"546.203","RA_OF_ASC_NODE":"84.2960","RCS_SIZE":"LARGE","OBJECT_TYPE":"PAYLOAD","NORAD_CAT_ID":"45735","ECCENTRICITY":"0.00015190","TIME_SYSTEM":"UTC","ELEMENT_SET_NO":"999","CENTER_NAME":"EARTH","FILE":"3220112","APOAPSIS":"548.307","INCLINATION":"53.0550","MEAN_MOTION_DDOT":"0.0000000000000","BSTAR":"-0.00002865900000","TLE_LINE1":"1 45735U 20038F   21324.76296421 -.00000708  00000-0 -28659-4 0  9997","SITE":"AFETR","MEAN_ELEMENT_THEORY":"SGP4","GP_ID":"190145118","DECAY_DATE":null,"CLASSIFICATION_TYPE":"U","PERIOD":"95.593","EPHEMERIS_TYPE":"0","ARG_OF_PERICENTER":"65.3228","OBJECT_NAME":"STARLINK-1471","SEMIMAJOR_AXIS":"6925.390","MEAN_MOTION_DOT":"-0.00000708","MEAN_MOTION":"15.06386405"},{"REF_FRAME":"TEME","MEAN_ANOMALY":"273.3507","OBJECT_ID":"2020-038G","REV_AT_EPOCH":"7951","TLE_LINE2":"2 45736  53.0544  85.8786 0001099  86.7608 273.3507 15.06394547 79517","EPOCH":"2021-11-20T09:49:07.282848","COUNTRY_CODE":"US","PERIAPSIS":"546.469","LAUNCH_DATE":"2020-06-13","RCS_SIZE":"LARGE","RA_OF_ASC_NODE":"85.8786","OBJECT_TYPE":"PAYLOAD","ECCENTRICITY":"0.00010990","NORAD_CAT_ID":"45736","TIME_SYSTEM":"UTC","INCLINATION":"53.0544","ELEMENT_SET_NO":"999","CENTER_NAME":"EARTH","APOAPSIS":"547.991","FILE":"3220049","MEAN_MOTION_DDOT":"0.0000000000000","TLE_LINE1":"1 45736U 20038G   21324.40911207  .00000221  00000-0  33703-4 0  9999","SITE":"AFETR","BSTAR":"0.00003370300000","MEAN_ELEMENT_THEORY":"SGP4","DECAY_DATE":null,"GP_ID":"190139156","PERIOD":"95.592","CLASSIFICATION_TYPE":"U","ARG_OF_PERICENTER":"86.7608","OBJECT_NAME":"STARLINK-1472","EPHEMERIS_TYPE":"0","MEAN_MOTION":"15.06394547","SEMIMAJOR_AXIS":"6925.365","MEAN_MOTION_DOT":"0.00000221"},{"LAUNCH_DATE":"2020-06-13","PERIAPSIS":"546.327","COUNTRY_CODE":"US","EPOCH":"2021-11-20T10:05:02.446944","TLE_LINE2":"2 45738  53.0530  85.8337 0001246  90.1420 269.9712 15.06407614 79510","REV_AT_EPOCH":"7951","OBJECT_ID":"2020-038J","MEAN_ANOMALY":"269.9712","REF_FRAME":"TEME","TIME_SYSTEM":"UTC","NORAD_CAT_ID":"45738","ECCENTRICITY":"0.00012460","OBJECT_TYPE":"PAYLOAD","RA_OF_ASC_NODE":"85.8337","RCS_SIZE":"LARGE","MEAN_ELEMENT_THEORY":"SGP4","BSTAR":"0.00000063626000","SITE":"AFETR","TLE_LINE1":"1 45738U 20038J   21324.42016721 -.00000272  00000-0  63626-6 0  9996","MEAN_MOTION_DDOT":"0.0000000000000","APOAPSIS":"548.053","FILE":"3220049","ELEMENT_SET_NO":"999","CENTER_NAME":"EARTH","INCLINATION":"53.0530","MEAN_MOTION_DOT":"-0.00000272","SEMIMAJOR_AXIS":"6925.325","MEAN_MOTION":"15.06407614","EPHEMERIS_TYPE":"0","OBJECT_NAME":"STARLINK-1474","ARG_OF_PERICENTER":"90.1420","CLASSIFICATION_TYPE":"U","PERIOD":"95.592","GP_ID":"190139406","DECAY_DATE":null},{"REF_FRAME":"TEME","MEAN_ANOMALY":"286.2140","OBJECT_ID":"2020-038K","REV_AT_EPOCH":"8008","TLE_LINE2":"2 45739  53.0558  45.4662 0001441  73.9007 286.2140 15.06396434 80089","EPOCH":"2021-11-20T12:01:48.940032","COUNTRY_CODE":"US","PERIAPSIS":"546.227","LAUNCH_DATE":"2020-06-13","RCS_SIZE":"LARGE","RA_OF_ASC_NODE":"45.4662","OBJECT_TYPE":"PAYLOAD","ECCENTRICITY":"0.00014410","NORAD_CAT_ID":"45739","TIME_SYSTEM":"UTC","INCLINATION":"53.0558","CENTER_NAME":"EARTH","ELEMENT_SET_NO":"999","APOAPSIS":"548.222","FILE":"3220049","MEAN_MOTION_DDOT":"0.0000000000000","TLE_LINE1":"1 45739U 20038K   21324.50126088 -.00000396  00000-0 -76752-5 0  9995","SITE":"AFETR","BSTAR":"-0.00000767520000","MEAN_ELEMENT_THEORY":"SGP4","DECAY_DATE":null,"GP_ID":"190140657","PERIOD":"95.592","CLASSIFICATION_TYPE":"U","ARG_OF_PERICENTER":"73.9007","OBJECT_NAME":"STARLINK-1475","EPHEMERIS_TYPE":"0","MEAN_MOTION":"15.06396434","SEMIMAJOR_AXIS":"6925.359","MEAN_MOTION_DOT":"-0.00000396"},{"LAUNCH_DATE":"2020-06-13","COUNTRY_CODE":"US","PERIAPSIS":"546.442","EPOCH":"2021-11-20T18:13:20.864928","TLE_LINE2":"2 45740  53.0548  84.3183 0001123  73.0589 287.0523 15.06397906 80688","REV_AT_EPOCH":"8068","OBJECT_ID":"2020-038L","REF_FRAME":"TEME","MEAN_ANOMALY":"287.0523","TIME_SYSTEM":"UTC","NORAD_CAT_ID":"45740","ECCENTRICITY":"0.00011230","OBJECT_TYPE":"PAYLOAD","RA_OF_ASC_NODE":"84.3183","RCS_SIZE":"LARGE","MEAN_ELEMENT_THEORY":"SGP4","BSTAR":"0.00011060000000","TLE_LINE1":"1 45740U 20038L   21324.75926927  .00001366  00000-0  11060-3 0  9999","SITE":"AFETR","MEAN_MOTION_DDOT":"0.0000000000000","ELEMENT_SET_NO":"999","CENTER_NAME":"EARTH","FILE":"3220171","APOAPSIS":"547.998","INCLINATION":"53.0548","SEMIMAJOR_AXIS":"6925.355","MEAN_MOTION_DOT":"0.00001366","MEAN_MOTION":"15.06397906","EPHEMERIS_TYPE":"0","ARG_OF_PERICENTER":"73.0589","OBJECT_NAME":"STARLINK-1479","CLASSIFICATION_TYPE":"U","PERIOD":"95.592","GP_ID":"190146423","DECAY_DATE":null},{"BSTAR":"-0.00002839600000","SITE":"AFETR","TLE_LINE1":"1 45741U 20038M   21324.46440602 -.00000704  00000-0 -28396-4 0  9997","MEAN_ELEMENT_THEORY":"SGP4","APOAPSIS":"548.109","FILE":"3220049","ELEMENT_SET_NO":"999","CENTER_NAME":"EARTH","INCLINATION":"53.0552","MEAN_MOTION_DDOT":"0.0000000000000","EPHEMERIS_TYPE":"0","OBJECT_NAME":"STARLINK-1480","ARG_OF_PERICENTER":"78.8086","MEAN_MOTION_DOT":"-0.00000704","SEMIMAJOR_AXIS":"6925.381","MEAN_MOTION":"15.06389517","GP_ID":"190139656","DECAY_DATE":null,"CLASSIFICATION_TYPE":"U","PERIOD":"95.593","EPOCH":"2021-11-20T11:08:44.680128","TLE_LINE2":"2 45741  53.0552  85.6411 0001247  78.8086 281.3043 15.06389517 79539","LAUNCH_DATE":"2020-06-13","PERIAPSIS":"546.382","COUNTRY_CODE":"US","MEAN_ANOMALY":"281.3043","REF_FRAME":"TEME","REV_AT_EPOCH":"7953","OBJECT_ID":"2020-038M","NORAD_CAT_ID":"45741","ECCENTRICITY":"0.00012470","TIME_SYSTEM":"UTC","RA_OF_ASC_NODE":"85.6411","RCS_SIZE":"LARGE","OBJECT_TYPE":"PAYLOAD"}];
